{
  "norad_id": 67057,
  "name": "STARLINK-36141",
  "history": [
    {
      "epoch": "2026-03-28T20:42:48.643200",
      "apogee_km": 484.5824138783619,
      "perigee_km": 481.3915795524499,
      "latitude_deg": 41.722976783075524,
      "longitude_deg": -111.44595200009644,
      "semi_major_axis_km": 6861.123996715406,
      "eccentricity": 0.00023253,
      "inclination_deg": 43.0003,
      "raan_deg": 289.6069,
      "arg_perigee_deg": 279.0231,
      "mean_anomaly_deg": 81.0358,
      "mean_motion_rev_day": 15.27600739
    }
  ]
}