{"fetched_at":"2026-03-30T13:17:50Z","count":15418,"tles":[{"name":"STARLINK-36141","line1":"1 67057U 25294AD  26087.86306300  .00034857  00000+0  12694-2 0  9996","line2":"2 67057  43.0003 289.6069 0002325 279.0231  81.0358 15.27600739 17736","category":"Starlink"}]}